ORBCOMM FM33            
1 25983U 99065D   25181.34370911  .00000465  00000+0  19130-3 0  9992
2 25983  45.0292 296.4068 0008658 140.6709 219.4771 14.40020117337969
ORBCOMM FM36            
1 25984U 99065E   25180.90909451  .00000593  00000+0  24036-3 0  9994
2 25984  45.0404  30.6045 0003287  17.6695 342.4268 14.38144026336250
ORBCOMM FM35            
1 25985U 99065F   25181.87115198  .00000523  00000+0  22177-3 0  9996
2 25985  45.0407  31.1869 0004121 100.8740 259.2572 14.37115294336941
ORBCOMM FM34            
1 25986U 99065G   25181.83693750  .00000441  00000+0  19462-3 0  9990
2 25986  45.0405  31.8147 0004343  55.0995 305.0261 14.37137155336906
ORBCOMM FM38            
1 33060U 08031A   25181.50028000  .00000782  00000+0  12630-3 0  9997
2 33060  48.4402 251.8008 0004130  98.1240 262.0144 14.81358525916728
ORBCOMM FM41            
1 33061U 08031B   25181.50978638  .00000770  00000+0  12589-3 0  9999
2 33061  48.4441 259.5803 0003353  79.4577 294.1216 14.80943558916216
ORBCOMM FM29            
1 33062U 08031C   25181.65518816  .00000850  00000+0  13594-3 0  9990
2 33062  48.4395 266.6810 0005051  80.5345  77.7612 14.81047518916537
ORBCOMM FM39            
1 33063U 08031D   25181.53446916  .00000781  00000+0  13121-3 0  9998
2 33063  48.4413 291.6746 0006102  49.6400 310.5047 14.79596256915771
